satname,norad_id,inclination_deg,eccentricity,mean_motion_rev_per_day,perigee_km,apogee_km,l1,l2
STARLINK-1402,45685,53.0454,0.0005686,15.49999975,412.86258309731875,420.58970146271986,1 45685U 20035AE  26098.56185919  .00082853  00000+0  14456-2 0  9994,2 45685  53.0454 240.6369 0005686 322.0010  38.0596 15.49999975323976
STARLINK-1404,45686,53.1606,4.66e-05,15.38138425,451.29609800392427,451.9326308310874,1 45686U 20035AF  26097.76304285  .00077301  00000+0  20183-2 0  9991,2 45686  53.1606 273.9730 0000466   1.5896 358.5110 15.38138425323436
STARLINK-1413,45689,53.1596,0.0001348,15.30214701,474.24734929259284,476.0950011766372,1 45689U 20035AJ  26098.61633597  .00006437  00000+0  22916-3 0  9999,2 45689  53.1596 270.5727 0001348  81.0607 279.0546 15.30214701323477
STARLINK-1417,45693,53.0512,0.0002911,15.14138507,521.5861248160609,525.604313314001,1 45693U 20035AN  26098.51541073  .00033038  00000+0  17998-2 0  9990,2 45693  53.0512 278.9671 0002911 333.3750  26.7092 15.14138507323416
STARLINK-1420,45695,53.0477,0.0004825,15.60215481,383.7699231856968,390.2983133148082,1 45695U 20035AQ  26098.58339120  .00079329  00000+0  95220-3 0  9995,2 45695  53.0477 237.5382 0004825 281.5328   4.2762 15.60215481  5767
STARLINK-1422,45696,53.1583,0.0001023,15.30343396,474.08589412346555,475.4880023632759,1 45696U 20035AR  26098.49294875  .00009796  00000+0  34091-3 0  9993,2 45696  53.1583 271.1456 0001023 101.3730 258.7386 15.30343396323536
STARLINK-1351,45697,53.047,0.0005528,15.58459764,388.3715377413191,395.856727393485,1 45697U 20035AS  26098.58339120  .00049643  00000+0  64157-3 0  9998,2 45697  53.0470 237.0515 0005528 292.3413 330.5047 15.58459764  5875
STARLINK-1400,45700,53.0461,0.0005126,15.5647572,394.39290384065225,401.3396624065108,1 45700U 20035AV  26098.60813562  .00102169  00000+0  14055-2 0  9997,2 45700  53.0461 238.6922 0005126 235.3291 124.7237 15.56475720323992
STARLINK-1403,45701,53.1563,0.0001086,15.29373874,476.938300997007,478.4273850669124,1 45701U 20035AW  26098.59526347  .00006711  00000+0  24456-3 0  9991,2 45701  53.1563 257.7746 0001086  94.8449 265.2675 15.29373874323722
STARLINK-1407,45703,53.0302,0.0003306,15.65856772,368.5446286746528,373.0070098307424,1 45703U 20035AY  26098.49173317  .00051680  00000+0  50128-3 0  9997,2 45703  53.0302 169.8424 0003306 236.5046 123.5652 15.65856772324955
STARLINK-1411,45706,53.0393,0.0004923,15.69434802,357.19693875462417,363.831814900248,1 45706U 20035BB  26098.58339120  .00130807  00000+0  10792-2 0  9997,2 45706  53.0393 194.6126 0004923 330.3001  94.1634 15.69434802  5952
STARLINK-1423,45710,53.0456,0.0006432,15.59046764,386.06110576459923,394.7681705919513,1 45710U 20035BF  26098.58339120  .00087266  00000+0  10929-2 0  9994,2 45710  53.0456 237.3306 0006432 259.7151  47.1093 15.59046764  5883
STARLINK-1433,45711,53.0456,0.0005851,15.61406889,379.63601804547034,387.54859367918925,1 45711U 20035BG  26098.58339120  .00081708  00000+0  93626-3 0  9996,2 45711  53.0456 235.9161 0005851 256.1721 138.9184 15.61406889  5932
STARLINK-1434,45712,53.0522,0.0002397,15.29810767,474.73446827927455,478.02052252837166,1 45712U 20035BH  26098.58814693  .00052102  00000+0  17800-2 0  9995,2 45712  53.0522 241.2523 0002397 237.9666 122.1100 15.29810767323963
STARLINK-1465,45731,53.0488,0.0005828,15.55062295,398.02010427463756,405.92299880231167,1 45731U 20038B   26098.64618684  .00094828  00000+0  13759-2 0  9998,2 45731  53.0488  78.9034 0005828  45.7095 314.4392 15.55062295321039
STARLINK-1471,45735,53.0478,0.0001718,15.50697098,413.52254078503483,415.85655598706035,1 45735U 20038F   26098.44072418  .00024612  00000+0  42775-3 0  9994,2 45735  53.0478 359.3081 0001718  50.9503 309.1658 15.50697098322145
STARLINK-1480,45741,53.0526,0.0002789,15.57083627,394.2132026253994,397.99187343971425,1 45741U 20038M   26098.34561224  .00107962  00000+0  14511-2 0  9994,2 45741  53.0526  74.4473 0002789 109.4279 250.7033 15.57083627321089
STARLINK-1500,45744,53.0369,0.0003284,15.36515087,454.1794985638044,458.66843820783924,1 45744U 20038Q   26098.16045980  .00025721  00000+0  71955-3 0  9991,2 45744  53.0369  54.3337 0003284  36.1235 323.9988 15.36515087321340
STARLINK-1504,45746,53.0241,9.14e-05,15.55368238,400.4627974897521,401.7020387993898,1 45746U 20038S   26098.00968787  .00032292  00000+0  47183-3 0  9992,2 45746  53.0241   0.5144 0000914  85.4178 274.6936 15.55368238322071
STARLINK-1506,45747,53.0756,0.0003397,15.26974524,482.5313470552628,487.1940690569172,1 45747U 20038T   26098.18726657  .00009286  00000+0  35857-3 0  9992,2 45747  53.0756  65.8447 0003397  11.8428 348.2649 15.26974524321192
STARLINK-1464,45751,53.0497,0.0003572,15.47794866,420.74884153057064,425.6077011604202,1 45751U 20038X   26098.18306021  .00092606  00000+0  17428-2 0  9997,2 45751  53.0497  64.0390 0003572  54.5204 305.6136 15.47794866321211
STARLINK-1477,45754,53.05,0.0003113,15.16019304,515.7390423943434,520.0325061736121,1 45754U 20038AA  26098.64591668  .00033985  00000+0  17550-2 0  9995,2 45754  53.0500  76.6363 0003113  74.2049 285.9287 15.16019304321079
STARLINK-1478,45755,53.0491,0.0003768,15.60335441,384.1383863340043,389.2363579808616,1 45755U 20038AB  26098.14667221  .00082821  00000+0  98906-3 0  9998,2 45755  53.0491  54.8923 0003768  41.6854 318.4445 15.60335441321325
STARLINK-1493,45759,53.0505,0.0004842,15.55631169,397.03639119002946,403.60064751497157,1 45759U 20038AF  26098.37971891  .00094736  00000+0  13464-2 0  9991,2 45759  53.0505  61.4483 0004842 106.7687 253.3855 15.55631169321255
STARLINK-1494,45760,53.048,0.0005311,15.81351037,323.0581851214147,330.1799770307334,1 45760U 20038AG  26098.58339120  .00140125  00000+0  68613-3 0  9990,2 45760  53.0480   2.2436 0005311 124.7821 152.5831 15.81351037  5886
STARLINK-1502,45764,53.0491,0.0006259,15.521659,406.15459360838395,414.6524886577736,1 45764U 20038AL  26098.58339120  .00040725  00000+0  66511-3 0  9994,2 45764  53.0491  62.7138 0006259  95.6730  88.3917 15.52165900  5857
STARLINK-1470,45772,53.0475,0.0003354,15.30788297,471.1610578654381,475.7571085180425,1 45772U 20038AU  26098.14896125  .00057745  00000+0  19113-2 0  9993,2 45772  53.0475  37.3168 0003354 105.3284 254.8086 15.30788297321589
STARLINK-1482,45773,53.1604,0.0003653,15.32883304,464.71428983863643,469.7155039345016,1 45773U 20038AV  26098.24845775  .00057806  00000+0  17924-2 0  9996,2 45773  53.1604  53.5049 0003653  96.6317 263.5101 15.32883304321373
STARLINK-1496,45780,53.0515,2.2e-05,15.53662861,405.89306287769614,406.19156676754756,1 45780U 20038BC  26098.09561990  .00102243  00000+0  15600-2 0  9996,2 45780  53.0515  36.5723 0000220 135.4601 224.6426 15.53662861321572
STARLINK-1513,45786,53.1626,0.0001378,15.30193855,474.28902289957205,476.17781178659243,1 45786U 20038BJ  26098.60466771  .00000697  00000+0  35678-4 0  9999,2 45786  53.1626  52.2001 0001378  84.0561 276.0596 15.30193855321425
STARLINK-1522,46027,53.0658,0.0002484,15.10651798,532.4939557330372,535.9280102109778,1 46027U 20055A   26098.40490249  .00026336  00000+0  15858-2 0  9996,2 46027  53.0658 352.4180 0002484 137.8401 222.2781 15.10651798313377
STARLINK-1523,46028,53.1607,0.00013,15.30192656,474.3460587476011,476.1279359869159,1 46028U 20055B   26097.97923357  .00003308  00000+0  12381-3 0  9992,2 46028  53.1607 350.6607 0001300  89.5670 270.5480 15.30192656313382
STARLINK-1526,46029,53.1585,0.000113,15.30210937,474.407988609486,475.956838796983,1 46029U 20055C   26098.43010674  .00013834  00000+0  47819-3 0  9993,2 46029  53.1585 348.5739 0001130  82.2024 277.9105 15.30210937313449
STARLINK-1555,46032,53.1604,0.0001328,15.30191967,474.328926274241,476.14918295434745,1 46032U 20055F   26097.95711481  .00001582  00000+0  65554-4 0  9991,2 46032  53.1604 350.7551 0001328  85.7942 274.3210 15.30191967313379
STARLINK-1556,46033,53.1553,0.0001438,15.29360294,476.73755454594357,478.70930000482804,1 46033U 20055G   26098.39436184  .00002999  00000+0  11622-3 0  9994,2 46033  53.1553 348.7089 0001438  93.5205 266.5960 15.29360294313416
STARLINK-1557,46034,53.1547,0.0001178,15.29374618,476.8730042670786,478.488234898251,1 46034U 20055H   26098.38811134  .00002059  00000+0  83628-4 0  9999,2 46034  53.1547 348.6375 0001178 104.2263 255.8868 15.29374618313415
STARLINK-1558,46035,53.1619,0.0001197,15.30180465,474.45304480400864,476.0937512532955,1 46035U 20055J   26098.40799577 -.00000446  00000+0 -29489-5 0  9995,2 46035  53.1619 348.6698 0001197  89.7606 270.3532 15.30180465313443
STARLINK-1560,46036,53.1549,0.0001143,15.2934958,476.9718183077466,478.5390753210877,1 46036U 20055K   26098.58339120  .00065347  00000+0  22575-2 0  9994,2 46036  53.1549 347.7701 0001143 101.5879 272.0169 15.29349580  5825
STARLINK-1567,46038,53.0882,0.0001158,15.74963542,343.9564203153441,345.51343745407485,1 46038U 20055M   26098.57001265  .00456919  00000+0  28605-2 0  9990,2 46038  53.0882 343.7938 0001158 118.8759 241.2376 15.74963542313514
STARLINK-1569,46039,53.1608,0.0001084,15.30189461,474.50363037883653,475.98944392969133,1 46039U 20055N   26098.41115405  .00000598  00000+0  32307-4 0  9990,2 46039  53.1608 348.6504 0001084  89.4863 270.6262 15.30189461313435
STARLINK-1582,46043,53.1612,0.0001436,15.30192229,474.2541276336806,476.2224170118916,1 46043U 20055S   26098.41747034  .00000956  00000+0  44413-4 0  9993,2 46043  53.1612 348.6135 0001436  87.6385 272.4780 15.30192229313436
STARLINK-1591,46045,53.161,0.0001223,15.30213137,474.33768482496544,476.0140051468479,1 46045U 20055U   26097.98660434  .00009452  00000+0  33070-3 0  9990,2 46045  53.1610 350.6255 0001223  83.7110 276.4030 15.30213137313354
STARLINK-1524,46047,53.1601,0.000107,15.30195594,474.4949148936321,475.961535051777,1 46047U 20055W   26098.37264936 -.00003069  00000+0 -91536-4 0  9995,2 46047  53.1601 335.9650 0001070  92.0402 268.0721 15.30195594313617
